OBJECT_NAME,OBJECT_ID,EPOCH,MEAN_MOTION,ECCENTRICITY,INCLINATION,RA_OF_ASC_NODE,ARG_OF_PERICENTER,MEAN_ANOMALY,EPHEMERIS_TYPE,CLASSIFICATION_TYPE,NORAD_CAT_ID,ELEMENT_SET_NO,REV_AT_EPOCH,BSTAR,MEAN_MOTION_DOT,MEAN_MOTION_DDOT
CAPELLA-15 (ACADIA-5),2024-149CE,2026-07-04T16:30:30.265920,14.92412141,.00037241,97.6734,258.1548,23.2249,336.9138,0,U,60544,999,10246,.70141149E-3,.7133E-4,0
HAWK-10B,2024-149CF,2026-07-05T03:43:51.231648,14.96571928,.00061874,97.6812,261.0952,47.2734,312.9007,0,U,60545,999,10267,.23706967E-3,.2642E-4,0
ICEYE-X39,2024-149CG,2026-07-05T03:43:58.257696,15.00019985,.00068742,97.6761,262.9354,72.9414,287.2562,0,U,60546,999,10281,.50709665E-3,.6255E-4,0
UMBRA-10,2024-149CH,2026-07-05T04:34:47.064864,15.18634050,.00008715,97.6973,273.7400,183.0614,177.0615,0,U,60547,999,10346,.14428614E-2,.29904E-3,0
ICEYE-X33,2024-149CJ,2026-07-05T04:04:17.162976,15.00904778,.00019331,97.7323,265.2172,78.9897,281.1544,0,U,60548,999,10290,.55925418E-3,.7064E-4,0
ICEYE-X40,2024-149CK,2026-07-04T16:05:05.639424,14.98012544,.00049432,97.6794,261.8857,29.4938,330.6563,0,U,60549,999,10269,.21392654E-3,.2469E-4,0
SATELIOT_1,2024-149CL,2026-07-04T23:51:02.128032,14.98138974,.0006845,97.6735,261.5970,22.9062,337.2465,0,U,60550,999,10273,.23768209E-3,.2759E-4,0
BRO-14,2024-149CM,2026-07-04T15:36:33.516288,14.96223989,.00077434,97.6870,261.1145,48.3161,311.8722,0,U,60551,999,10260,.1271669E-3,.1378E-4,0
SATELIOT_3,2024-149CN,2026-07-05T04:04:57.040032,14.98143115,.000602,97.6829,262.5769,42.8787,317.2904,0,U,60552,999,10277,.33775894E-3,.3946E-4,0
BRO-15,2024-149CP,2026-07-05T04:01:58.230048,14.96220515,.00088049,97.6814,261.2074,34.7524,325.4271,0,U,60553,999,10269,.38676411E-3,.4309E-4,0
UM5-RIBAT,2024-149CQ,2026-07-05T03:16:43.767552,15.01185112,.00019131,97.6612,263.6946,30.4689,329.6646,0,U,60554,999,10288,.41772374E-3,.53E-4,0
UM5-EOSAT,2024-149CR,2026-07-05T03:56:05.454528,15.01679947,.00091826,97.6758,264.6952,62.6012,297.6145,0,U,60555,999,10291,.44280371E-3,.57E-4,0
LASARSAT,2024-247Q,2026-07-04T23:50:24.272736,15.47503950,.00063818,44.9731,162.0756,90.7609,269.4013,0,U,62391,999,8607,.11319372E-2,.59622E-3,0
CROCUBE,2024-247T,2026-07-04T23:14:45.657600,15.49564036,.00063381,44.9702,159.2468,96.8573,263.3039,0,U,62394,999,8610,.12319432E-2,.69895E-3,0
TEVEL2-4,2025-052D,2026-07-05T04:12:22.534848,15.35300783,.00043133,97.3873,82.6013,70.7177,289.4533,0,U,63213,999,7287,.93863468E-3,.32201E-3,0
TEVEL2-5,2025-052E,2026-07-05T03:11:00.772512,15.35113750,.00043584,97.3874,82.5017,71.7638,288.4080,0,U,63214,999,7286,.98633586E-3,.33647E-3,0
TEVEL2-6,2025-052F,2026-07-05T03:29:21.470496,15.35078686,.00042467,97.3878,82.4992,73.5451,286.6259,0,U,63215,999,7286,.98324941E-3,.33503E-3,0
TEVEL2-1,2025-052H,2026-07-05T04:20:19.974336,15.34522825,.00047791,97.3845,82.1371,79.9746,280.2036,0,U,63217,999,7285,.92518709E-3,.3096E-3,0
TEVEL2-3,2025-052J,2026-07-05T04:11:38.342112,15.34582025,.00046014,97.3854,82.1553,81.1194,279.0570,0,U,63218,999,7285,.95671915E-3,.32082E-3,0
TEVEL2-2,2025-052K,2026-07-05T04:20:37.034016,15.34532608,.00048204,97.3851,82.1402,80.0864,280.0923,0,U,63219,999,7285,.96426954E-3,.32287E-3,0
TEVEL2-9,2025-052AD,2026-07-04T15:49:45.628896,15.32469764,.00081461,97.3915,80.9557,85.7788,274.4385,0,U,63237,999,7270,.94211E-3,.29568E-3,0
TEVEL2-7,2025-052AE,2026-07-05T03:51:55.254816,15.32188755,.00083238,97.3915,81.3642,84.2056,276.0135,0,U,63238,999,7277,.92993745E-3,.28929E-3,0
TEVEL2-8,2025-052AF,2026-07-05T04:04:03.260352,15.32175555,.00083679,97.3914,81.3488,85.0998,275.1199,0,U,63239,999,7277,.88213415E-3,.27422E-3,0
FORESAIL-1 PRIME,2025-276DS,2026-07-05T04:20:09.371328,15.18875849,.00035648,97.4189,259.1235,66.2467,293.9142,0,U,66778,999,3313,.38047913E-3,.787E-4,0
