CAPELLA-15 (ACADIA-5)   
1 60544U 24149CE  26185.68785030  .00007133  00000+0  70141-3 0  9997
2 60544  97.6734 258.1548 0003724  23.2249 336.9138 14.92412141102463
HAWK-10B                
1 60545U 24149CF  26186.15545407  .00002642  00000+0  23707-3 0  9999
2 60545  97.6812 261.0952 0006187  47.2734 312.9007 14.96571928102679
ICEYE-X39               
1 60546U 24149CG  26186.15553539  .00006255  00000+0  50710-3 0  9993
2 60546  97.6761 262.9354 0006874  72.9414 287.2562 15.00019985102814
UMBRA-10                
1 60547U 24149CH  26186.19082251  .00029904  00000+0  14429-2 0  9998
2 60547  97.6973 273.7400 0000871 183.0614 177.0615 15.18634050103461
ICEYE-X33               
1 60548U 24149CJ  26186.16964309  .00007064  00000+0  55925-3 0  9999
2 60548  97.7323 265.2172 0001933  78.9897 281.1544 15.00904778102903
ICEYE-X40               
1 60549U 24149CK  26185.67020416  .00002469  00000+0  21393-3 0  9993
2 60549  97.6794 261.8857 0004943  29.4938 330.6563 14.98012544102692
SATELIOT_1              
1 60550U 24149CL  26185.99377463  .00002759  00000+0  23768-3 0  9997
2 60550  97.6735 261.5970 0006845  22.9062 337.2465 14.98138974102736
BRO-14                  
1 60551U 24149CM  26185.65038792  .00001378  00000+0  12717-3 0  9998
2 60551  97.6870 261.1145 0007743  48.3161 311.8722 14.96223989102606
SATELIOT_3              
1 60552U 24149CN  26186.17010463  .00003946  00000+0  33776-3 0  9993
2 60552  97.6829 262.5769 0006020  42.8787 317.2904 14.98143115102772
BRO-15                  
1 60553U 24149CP  26186.16803507  .00004309  00000+0  38676-3 0  9990
2 60553  97.6814 261.2074 0008804  34.7524 325.4271 14.96220515102690
UM5-RIBAT               
1 60554U 24149CQ  26186.13661768  .00005300  00000+0  41772-3 0  9992
2 60554  97.6612 263.6946 0001913  30.4689 329.6646 15.01185112102883
UM5-EOSAT               
1 60555U 24149CR  26186.16395202  .00005700  00000+0  44280-3 0  9994
2 60555  97.6758 264.6952 0009182  62.6012 297.6145 15.01679947102912
LASARSAT                
1 62391U 24247Q   26185.99333649  .00059622  00000+0  11319-2 0  9998
2 62391  44.9731 162.0756 0006381  90.7609 269.4013 15.47503950 86072
CROCUBE                 
1 62394U 24247T   26185.96858400  .00069895  00000+0  12319-2 0  9999
2 62394  44.9702 159.2468 0006338  96.8573 263.3039 15.49564036 86109
TEVEL2-4                
1 63213U 25052D   26186.17526082  .00032201  00000+0  93863-3 0  9992
2 63213  97.3873  82.6013 0004313  70.7177 289.4533 15.35300783 72877
TEVEL2-5                
1 63214U 25052E   26186.13264783  .00033647  00000+0  98634-3 0  9992
2 63214  97.3874  82.5017 0004358  71.7638 288.4080 15.35113750 72865
TEVEL2-6                
1 63215U 25052F   26186.14538739  .00033503  00000+0  98325-3 0  9997
2 63215  97.3878  82.4992 0004246  73.5451 286.6259 15.35078686 72866
TEVEL2-1                
1 63217U 25052H   26186.18078674  .00030960  00000+0  92519-3 0  9993
2 63217  97.3845  82.1371 0004779  79.9746 280.2036 15.34522825 72858
TEVEL2-3                
1 63218U 25052J   26186.17474933  .00032082  00000+0  95672-3 0  9991
2 63218  97.3854  82.1553 0004601  81.1194 279.0570 15.34582025 72854
TEVEL2-2                
1 63219U 25052K   26186.18098419  .00032287  00000+0  96427-3 0  9990
2 63219  97.3851  82.1402 0004820  80.0864 280.0923 15.34532608 72856
TEVEL2-9                
1 63237U 25052AD  26185.65955589  .00029568  00000+0  94211-3 0  9998
2 63237  97.3915  80.9557 0008146  85.7788 274.4385 15.32469764 72709
TEVEL2-7                
1 63238U 25052AE  26186.16105619  .00028929  00000+0  92994-3 0  9993
2 63238  97.3915  81.3642 0008323  84.2056 276.0135 15.32188755 72775
TEVEL2-8                
1 63239U 25052AF  26186.16948218  .00027422  00000+0  88213-3 0  9990
2 63239  97.3914  81.3488 0008367  85.0998 275.1199 15.32175555 72779
FORESAIL-1 PRIME        
1 66778U 25276DS  26186.18066402  .00007870  00000+0  38048-3 0  9993
2 66778  97.4189 259.1235 0003564  66.2467 293.9142 15.18875849 33136
